STARLINK-2543           
1 48278U 21036C   26068.28605592  .00013779  00000+0  47597-3 0  9991
2 48278  53.1607  26.2778 0001404 110.4197 249.6954 15.30234914269050
STARLINK-31630          
1 59271U 24050T   26068.56880718 -.00002063  00000+0 -57526-4 0  9991
2 59271  53.1600 168.5079 0001409  92.3163 267.7999 15.30200807110710
